[{"OBJECT_NAME":"ONEWEB-0411","OBJECT_ID":"2022-012B","EPOCH":"2026-03-09T23:27:20.247552","MEAN_MOTION":13.10370121,"ECCENTRICITY":0.00024132,"INCLINATION":87.8771,"RA_OF_ASC_NODE":56.0149,"ARG_OF_PERICENTER":88.5181,"MEAN_ANOMALY":271.6223,"EPHEMERIS_TYPE":0,"CLASSIFICATION_TYPE":"U","NORAD_CAT_ID":51623,"ELEMENT_SET_NO":999,"REV_AT_EPOCH":19629,"BSTAR":-0.0011866415,"MEAN_MOTION_DOT":-4.02e-6,"MEAN_MOTION_DDOT":0},{"OBJECT_NAME":"DELTA 1 DEB","OBJECT_ID":"1977-065GK","EPOCH":"2026-03-09T12:42:00.380448","MEAN_MOTION":14.06309065,"ECCENTRICITY":0.05229834,"INCLINATION":29.0296,"RA_OF_ASC_NODE":199.7344,"ARG_OF_PERICENTER":45.239,"MEAN_ANOMALY":318.9544,"EPHEMERIS_TYPE":0,"CLASSIFICATION_TYPE":"U","NORAD_CAT_ID":39098,"ELEMENT_SET_NO":999,"REV_AT_EPOCH":61131,"BSTAR":0.00047724368,"MEAN_MOTION_DOT":2.979e-5,"MEAN_MOTION_DDOT":0}]
